start=new Date('2022-12-13T00:00:00.000Z').valueOf();
sats=[{"OBJECT_ID":"2022-101AK","EPHEMERIS_TYPE":"0","RCS_SIZE":"LARGE","SITE":"AFETR","NORAD_CAT_ID":"53560","FILE":"3694071","LAUNCH_DATE":"2022-08-19","OBJECT_NAME":"STARLINK-4564","MEAN_ELEMENT_THEORY":"SGP4","DECAY_DATE":null,"TLE_LINE1":"1 53560U 22101AK  22346.31788081 -.00000028  00000-0  16363-4 0  9992","OBJECT_TYPE":"PAYLOAD","EPOCH":"2022-12-12T07:37:44.901984","APOAPSIS":"540.912","GP_ID":"220170586","CLASSIFICATION_TYPE":"U","TIME_SYSTEM":"UTC","MEAN_MOTION_DDOT":"0.0000000000000","BSTAR":"0.00001636300000","REF_FRAME":"TEME","TLE_LINE2":"2 53560  53.2164 326.6520 0001661  49.9162 310.1976 15.08834111 17794","CENTER_NAME":"EARTH","ELEMENT_SET_NO":"999","MEAN_MOTION":"15.08834111","PERIAPSIS":"538.614","INCLINATION":"53.2164","ARG_OF_PERICENTER":"49.9162","MEAN_ANOMALY":"310.1976","PERIOD":"95.438","MEAN_MOTION_DOT":"-0.00000028","COUNTRY_CODE":"US","SEMIMAJOR_AXIS":"6917.898","REV_AT_EPOCH":"1779","ECCENTRICITY":"0.00016610","RA_OF_ASC_NODE":"326.6520"},{"OBJECT_ID":"2022-101AL","SITE":"AFETR","RCS_SIZE":"LARGE","EPHEMERIS_TYPE":"0","OBJECT_NAME":"STARLINK-4563","LAUNCH_DATE":"2022-08-19","NORAD_CAT_ID":"53561","FILE":"3694071","DECAY_DATE":null,"MEAN_ELEMENT_THEORY":"SGP4","TLE_LINE1":"1 53561U 22101AL  22346.33533798  .00000220  00000-0  31926-4 0  9993","APOAPSIS":"541.069","EPOCH":"2022-12-12T08:02:53.201472","OBJECT_TYPE":"PAYLOAD","CLASSIFICATION_TYPE":"U","GP_ID":"220170831","MEAN_MOTION_DDOT":"0.0000000000000","TIME_SYSTEM":"UTC","REF_FRAME":"TEME","BSTAR":"0.00003192600000","ELEMENT_SET_NO":"999","CENTER_NAME":"EARTH","TLE_LINE2":"2 53561  53.2209 336.4077 0001906  49.2065 310.9093 15.08838345 17665","PERIAPSIS":"538.432","INCLINATION":"53.2209","ARG_OF_PERICENTER":"49.2065","MEAN_MOTION":"15.08838345","MEAN_MOTION_DOT":"0.00000220","PERIOD":"95.438","MEAN_ANOMALY":"310.9093","COUNTRY_CODE":"US","ECCENTRICITY":"0.00019060","REV_AT_EPOCH":"1766","SEMIMAJOR_AXIS":"6917.885","RA_OF_ASC_NODE":"336.4077"},{"CENTER_NAME":"EARTH","TLE_LINE2":"2 53562  53.2180 326.3242 0001868  57.1442 302.9729 15.08825739 18469","ELEMENT_SET_NO":"999","MEAN_MOTION":"15.08825739","PERIAPSIS":"538.497","INCLINATION":"53.2180","ARG_OF_PERICENTER":"57.1442","MEAN_MOTION_DDOT":"0.0000000000000","TIME_SYSTEM":"UTC","REF_FRAME":"TEME","BSTAR":"0.00003210900000","SEMIMAJOR_AXIS":"6917.924","ECCENTRICITY":"0.00018680","REV_AT_EPOCH":"1846","RA_OF_ASC_NODE":"326.3242","PERIOD":"95.438","MEAN_ANOMALY":"302.9729","MEAN_MOTION_DOT":"0.00000223","COUNTRY_CODE":"US","FILE":"3694071","NORAD_CAT_ID":"53562","OBJECT_NAME":"STARLINK-4565","LAUNCH_DATE":"2022-08-19","OBJECT_ID":"2022-101AM","EPHEMERIS_TYPE":"0","SITE":"AFETR","RCS_SIZE":"LARGE","EPOCH":"2022-12-12T09:03:54.258048","OBJECT_TYPE":"PAYLOAD","APOAPSIS":"541.081","CLASSIFICATION_TYPE":"U","GP_ID":"220171576","MEAN_ELEMENT_THEORY":"SGP4","DECAY_DATE":null,"TLE_LINE1":"1 53562U 22101AM  22346.37771132  .00000223  00000-0  32109-4 0  9991"},{"RA_OF_ASC_NODE":"326.3802","ECCENTRICITY":"0.00021130","REV_AT_EPOCH":"1780","SEMIMAJOR_AXIS":"6917.901","COUNTRY_CODE":"US","MEAN_MOTION_DOT":"0.00002613","PERIOD":"95.438","MEAN_ANOMALY":"319.4993","PERIAPSIS":"538.304","ARG_OF_PERICENTER":"40.6156","INCLINATION":"53.2165","MEAN_MOTION":"15.08833338","ELEMENT_SET_NO":"999","CENTER_NAME":"EARTH","TLE_LINE2":"2 53563  53.2165 326.3802 0002113  40.6156 319.4993 15.08833338 17805","REF_FRAME":"TEME","BSTAR":"0.00018223000000","MEAN_MOTION_DDOT":"0.0000000000000","TIME_SYSTEM":"UTC","CLASSIFICATION_TYPE":"U","GP_ID":"220170336","APOAPSIS":"541.228","EPOCH":"2022-12-12T09:18:26.512704","OBJECT_TYPE":"PAYLOAD","TLE_LINE1":"1 53563U 22101AN  22346.38780686  .00002613  00000-0  18223-3 0  9992","DECAY_DATE":null,"MEAN_ELEMENT_THEORY":"SGP4","OBJECT_NAME":"STARLINK-4561","LAUNCH_DATE":"2022-08-19","NORAD_CAT_ID":"53563","FILE":"3694071","SITE":"AFETR","RCS_SIZE":"LARGE","EPHEMERIS_TYPE":"0","OBJECT_ID":"2022-101AN"},{"ARG_OF_PERICENTER":"59.0583","PERIAPSIS":"538.848","INCLINATION":"53.2163","MEAN_MOTION":"15.08831528","ELEMENT_SET_NO":"999","TLE_LINE2":"2 53564  53.2163 326.5888 0001335  59.0583 301.0540 15.08831528 17795","CENTER_NAME":"EARTH","BSTAR":"0.00000966910000","REF_FRAME":"TEME","TIME_SYSTEM":"UTC","MEAN_MOTION_DDOT":"0.0000000000000","RA_OF_ASC_NODE":"326.5888","REV_AT_EPOCH":"1779","ECCENTRICITY":"0.00013350","SEMIMAJOR_AXIS":"6917.906","COUNTRY_CODE":"US","MEAN_MOTION_DOT":"-0.00000134","MEAN_ANOMALY":"301.0540","PERIOD":"95.438","LAUNCH_DATE":"2022-08-19","OBJECT_NAME":"STARLINK-4577","FILE":"3694355","NORAD_CAT_ID":"53564","RCS_SIZE":"LARGE","SITE":"AFETR","EPHEMERIS_TYPE":"0","OBJECT_ID":"2022-101AP","GP_ID":"220175201","CLASSIFICATION_TYPE":"U","APOAPSIS":"540.695","EPOCH":"2022-12-12T07:21:49.646304","OBJECT_TYPE":"PAYLOAD","TLE_LINE1":"1 53564U 22101AP  22346.30682461 -.00000134  00000-0  96691-5 0  9991","DECAY_DATE":null,"MEAN_ELEMENT_THEORY":"SGP4"},{"MEAN_ELEMENT_THEORY":"SGP4","DECAY_DATE":null,"TLE_LINE1":"1 53565U 22101AQ  22346.31419343  .00001162  00000-0  91072-4 0  9998","OBJECT_TYPE":"PAYLOAD","EPOCH":"2022-12-12T07:32:26.312352","APOAPSIS":"541.014","GP_ID":"220171332","CLASSIFICATION_TYPE":"U","OBJECT_ID":"2022-101AQ","EPHEMERIS_TYPE":"0","RCS_SIZE":"LARGE","SITE":"AFETR","NORAD_CAT_ID":"53565","FILE":"3694071","LAUNCH_DATE":"2022-08-19","OBJECT_NAME":"STARLINK-4575","MEAN_ANOMALY":"312.5935","PERIOD":"95.438","MEAN_MOTION_DOT":"0.00001162","COUNTRY_CODE":"US","SEMIMAJOR_AXIS":"6917.889","REV_AT_EPOCH":"1845","ECCENTRICITY":"0.00018220","RA_OF_ASC_NODE":"326.6340","TIME_SYSTEM":"UTC","MEAN_MOTION_DDOT":"0.0000000000000","BSTAR":"0.00009107200000","REF_FRAME":"TEME","TLE_LINE2":"2 53565  53.2171 326.6340 0001822  47.5211 312.5935 15.08837273 18452","CENTER_NAME":"EARTH","ELEMENT_SET_NO":"999","MEAN_MOTION":"15.08837273","PERIAPSIS":"538.493","INCLINATION":"53.2171","ARG_OF_PERICENTER":"47.5211"},{"TLE_LINE2":"2 53566  53.2157 326.2486 0001272  81.2999 278.8138 15.08836881 18498","CENTER_NAME":"EARTH","ELEMENT_SET_NO":"999","MEAN_MOTION":"15.08836881","ARG_OF_PERICENTER":"81.2999","PERIAPSIS":"538.875","INCLINATION":"53.2157","TIME_SYSTEM":"UTC","MEAN_MOTION_DDOT":"0.0000000000000","BSTAR":"0.00000885370000","REF_FRAME":"TEME","SEMIMAJOR_AXIS":"6917.890","REV_AT_EPOCH":"1849","ECCENTRICITY":"0.00012720","RA_OF_ASC_NODE":"326.2486","MEAN_ANOMALY":"278.8138","PERIOD":"95.438","MEAN_MOTION_DOT":"-0.00000147","COUNTRY_CODE":"US","NORAD_CAT_ID":"53566","FILE":"3694071","LAUNCH_DATE":"2022-08-19","OBJECT_NAME":"STARLINK-4576","OBJECT_ID":"2022-101AR","EPHEMERIS_TYPE":"0","RCS_SIZE":"LARGE","SITE":"AFETR","EPOCH":"2022-12-12T08:46:35.901984","OBJECT_TYPE":"PAYLOAD","APOAPSIS":"540.635","GP_ID":"220171076","CLASSIFICATION_TYPE":"U","MEAN_ELEMENT_THEORY":"SGP4","DECAY_DATE":null,"TLE_LINE1":"1 53566U 22101AR  22346.36569331 -.00000147  00000-0  88537-5 0  9993"},{"TLE_LINE1":"1 53567U 22101AS  22346.37674778  .00001712  00000-0  12564-3 0  9990","DECAY_DATE":null,"MEAN_ELEMENT_THEORY":"SGP4","CLASSIFICATION_TYPE":"U","GP_ID":"220169837","APOAPSIS":"540.780","OBJECT_TYPE":"PAYLOAD","EPOCH":"2022-12-12T09:02:31.008192","SITE":"AFETR","RCS_SIZE":"LARGE","EPHEMERIS_TYPE":"0","OBJECT_ID":"2022-101AS","OBJECT_NAME":"STARLINK-4585","LAUNCH_DATE":"2022-08-19","FILE":"3694071","NORAD_CAT_ID":"53567","COUNTRY_CODE":"US","MEAN_MOTION_DOT":"0.00001712","PERIOD":"95.438","MEAN_ANOMALY":"313.2091","RA_OF_ASC_NODE":"326.3100","ECCENTRICITY":"0.00014610","REV_AT_EPOCH":"1780","SEMIMAJOR_AXIS":"6917.904","REF_FRAME":"TEME","BSTAR":"0.00012564000000","MEAN_MOTION_DDOT":"0.0000000000000","TIME_SYSTEM":"UTC","ARG_OF_PERICENTER":"46.9024","PERIAPSIS":"538.759","INCLINATION":"53.2174","MEAN_MOTION":"15.08832175","ELEMENT_SET_NO":"999","CENTER_NAME":"EARTH","TLE_LINE2":"2 53567  53.2174 326.3100 0001461  46.9024 313.2091 15.08832175 17807"},{"COUNTRY_CODE":"US","MEAN_ANOMALY":"318.5713","PERIOD":"95.438","MEAN_MOTION_DOT":"0.00000086","RA_OF_ASC_NODE":"325.8806","SEMIMAJOR_AXIS":"6917.882","REV_AT_EPOCH":"1850","ECCENTRICITY":"0.00020800","BSTAR":"0.00002354100000","REF_FRAME":"TEME","TIME_SYSTEM":"UTC","MEAN_MOTION_DDOT":"0.0000000000000","MEAN_MOTION":"15.08839422","PERIAPSIS":"538.308","INCLINATION":"53.2173","ARG_OF_PERICENTER":"41.5437","TLE_LINE2":"2 53568  53.2173 325.8806 0002080  41.5437 318.5713 15.08839422 18500","CENTER_NAME":"EARTH","ELEMENT_SET_NO":"999","TLE_LINE1":"1 53568U 22101AT  22346.42088254  .00000086  00000-0  23541-4 0  9996","MEAN_ELEMENT_THEORY":"SGP4","DECAY_DATE":null,"GP_ID":"220170587","CLASSIFICATION_TYPE":"U","EPOCH":"2022-12-12T10:06:04.251456","OBJECT_TYPE":"PAYLOAD","APOAPSIS":"541.186","EPHEMERIS_TYPE":"0","RCS_SIZE":"LARGE","SITE":"AFETR","OBJECT_ID":"2022-101AT","FILE":"3694071","NORAD_CAT_ID":"53568","LAUNCH_DATE":"2022-08-19","OBJECT_NAME":"STARLINK-4583"},{"MEAN_MOTION":"15.08840392","PERIAPSIS":"538.265","INCLINATION":"53.2156","ARG_OF_PERICENTER":"34.9918","TLE_LINE2":"2 53569  53.2156 326.2680 0002138  34.9918 325.1215 15.08840392 18476","CENTER_NAME":"EARTH","ELEMENT_SET_NO":"999","BSTAR":"0.00004174500000","REF_FRAME":"TEME","TIME_SYSTEM":"UTC","MEAN_MOTION_DDOT":"0.0000000000000","RA_OF_ASC_NODE":"326.2680","SEMIMAJOR_AXIS":"6917.879","REV_AT_EPOCH":"1847","ECCENTRICITY":"0.00021380","COUNTRY_CODE":"US","MEAN_ANOMALY":"325.1215","PERIOD":"95.438","MEAN_MOTION_DOT":"0.00000376","NORAD_CAT_ID":"53569","FILE":"3694071","OBJECT_NAME":"STARLINK-4582","LAUNCH_DATE":"2022-08-19","EPHEMERIS_TYPE":"0","RCS_SIZE":"LARGE","SITE":"AFETR","OBJECT_ID":"2022-101AU","GP_ID":"220170832","CLASSIFICATION_TYPE":"U","EPOCH":"2022-12-12T08:51:54.611712","OBJECT_TYPE":"PAYLOAD","APOAPSIS":"541.223","TLE_LINE1":"1 53569U 22101AU  22346.36938208  .00000376  00000-0  41745-4 0  9991","MEAN_ELEMENT_THEORY":"SGP4","DECAY_DATE":null}];
